STARLINK-31397          
1 59540U 24074G   26068.18224681  .00011242  00000+0  41827-3 0  9998
2 59540  43.0017 346.6585 0001248  41.9916 318.1032 15.27512537105936
FLOCK 4G-3              
1 62639U 25009AG  26068.80174065  .00011494  00000+0  43389-3 0  9993
2 62639  97.4062 151.4068 0001320 293.2042  66.9058 15.27179310 63727
